[{"OBJECT_NAME":"BEIDOU-3 M17 (C36)","OBJECT_ID":"2018-093A","EPOCH":"2026-03-06T05:09:33.278400","MEAN_MOTION":1.86228456,"ECCENTRICITY":0.00071082,"INCLINATION":54.1711,"RA_OF_ASC_NODE":185.7894,"ARG_OF_PERICENTER":296.9682,"MEAN_ANOMALY":63.1399,"EPHEMERIS_TYPE":0,"CLASSIFICATION_TYPE":"U","NORAD_CAT_ID":43706,"ELEMENT_SET_NO":999,"REV_AT_EPOCH":4962,"BSTAR":0,"MEAN_MOTION_DOT":1.2e-7,"MEAN_MOTION_DDOT":0},{"OBJECT_NAME":"BEIDOU-3 M18 (C37)","OBJECT_ID":"2018-093B","EPOCH":"2026-03-06T14:44:08.462112","MEAN_MOTION":1.8622663,"ECCENTRICITY":0.00060294,"INCLINATION":54.172,"RA_OF_ASC_NODE":185.7676,"ARG_OF_PERICENTER":341.6621,"MEAN_ANOMALY":18.2927,"EPHEMERIS_TYPE":0,"CLASSIFICATION_TYPE":"U","NORAD_CAT_ID":43707,"ELEMENT_SET_NO":999,"REV_AT_EPOCH":4962,"BSTAR":0,"MEAN_MOTION_DOT":1.5e-7,"MEAN_MOTION_DDOT":0},{"OBJECT_NAME":"BEIDOU-3 IGSO-1 (C38)","OBJECT_ID":"2019-023A","EPOCH":"2026-03-06T07:40:48.775008","MEAN_MOTION":1.00270546,"ECCENTRICITY":0.00259794,"INCLINATION":58.5566,"RA_OF_ASC_NODE":38.7058,"ARG_OF_PERICENTER":236.3832,"MEAN_ANOMALY":123.2959,"EPHEMERIS_TYPE":0,"CLASSIFICATION_TYPE":"U","NORAD_CAT_ID":44204,"ELEMENT_SET_NO":999,"REV_AT_EPOCH":617,"BSTAR":0,"MEAN_MOTION_DOT":-2.07e-6,"MEAN_MOTION_DDOT":0},{"OBJECT_NAME":"BEIDOU-2 G8 (C01)","OBJECT_ID":"2019-027A","EPOCH":"2026-03-06T13:27:38.532096","MEAN_MOTION":1.00275771,"ECCENTRICITY":0.00116207,"INCLINATION":1.3983,"RA_OF_ASC_NODE":74.2559,"ARG_OF_PERICENTER":271.5393,"MEAN_ANOMALY":164.8091,"EPHEMERIS_TYPE":0,"CLASSIFICATION_TYPE":"U","NORAD_CAT_ID":44231,"ELEMENT_SET_NO":999,"REV_AT_EPOCH":2505,"BSTAR":0,"MEAN_MOTION_DOT":-2.51e-6,"MEAN_MOTION_DDOT":0},{"OBJECT_NAME":"BEIDOU-3 IGSO-2 (C39)","OBJECT_ID":"2019-035A","EPOCH":"2026-02-26T16:31:51.989952","MEAN_MOTION":1.00247364,"ECCENTRICITY":0.00387345,"INCLINATION":55.2338,"RA_OF_ASC_NODE":159.8353,"ARG_OF_PERICENTER":206.4752,"MEAN_ANOMALY":153.7223,"EPHEMERIS_TYPE":0,"CLASSIFICATION_TYPE":"U","NORAD_CAT_ID":44337,"ELEMENT_SET_NO":999,"REV_AT_EPOCH":2456,"BSTAR":0,"MEAN_MOTION_DOT":-1.76e-6,"MEAN_MOTION_DDOT":0},{"OBJECT_NAME":"BEIDOU-3 M24 (C46)","OBJECT_ID":"2019-061A","EPOCH":"2026-03-06T03:31:39.524736","MEAN_MOTION":1.86228818,"ECCENTRICITY":0.00085835,"INCLINATION":54.399,"RA_OF_ASC_NODE":186.2022,"ARG_OF_PERICENTER":21.0011,"MEAN_ANOMALY":339.0071,"EPHEMERIS_TYPE":0,"CLASSIFICATION_TYPE":"U","NORAD_CAT_ID":44542,"ELEMENT_SET_NO":999,"REV_AT_EPOCH":4387,"BSTAR":0,"MEAN_MOTION_DOT":1.2e-7,"MEAN_MOTION_DDOT":0},{"OBJECT_NAME":"BEIDOU-3 M23 (C45)","OBJECT_ID":"2019-061B","EPOCH":"2026-03-05T18:50:37.940640","MEAN_MOTION":1.86227349,"ECCENTRICITY":0.0005061,"INCLINATION":54.3974,"RA_OF_ASC_NODE":186.1828,"ARG_OF_PERICENTER":14.0485,"MEAN_ANOMALY":15.6215,"EPHEMERIS_TYPE":0,"CLASSIFICATION_TYPE":"U","NORAD_CAT_ID":44543,"ELEMENT_SET_NO":999,"REV_AT_EPOCH":4387,"BSTAR":0,"MEAN_MOTION_DOT":9.0e-8,"MEAN_MOTION_DDOT":0},{"OBJECT_NAME":"BEIDOU-3 IGSO-3 (C40)","OBJECT_ID":"2019-073A","EPOCH":"2026-03-04T23:59:28.160736","MEAN_MOTION":1.00269134,"ECCENTRICITY":0.00405518,"INCLINATION":54.9773,"RA_OF_ASC_NODE":282.0232,"ARG_OF_PERICENTER":188.9231,"MEAN_ANOMALY":171.0493,"EPHEMERIS_TYPE":0,"CLASSIFICATION_TYPE":"U","NORAD_CAT_ID":44709,"ELEMENT_SET_NO":999,"REV_AT_EPOCH":2341,"BSTAR":0,"MEAN_MOTION_DOT":-1.62e-6,"MEAN_MOTION_DDOT":0},{"OBJECT_NAME":"BEIDOU-3 M22 (C44)","OBJECT_ID":"2019-078A","EPOCH":"2026-03-04T09:00:38.803968","MEAN_MOTION":1.86231851,"ECCENTRICITY":0.0007273,"INCLINATION":54.0307,"RA_OF_ASC_NODE":303.5169,"ARG_OF_PERICENTER":35.6258,"MEAN_ANOMALY":324.4804,"EPHEMERIS_TYPE":0,"CLASSIFICATION_TYPE":"U","NORAD_CAT_ID":44793,"ELEMENT_SET_NO":999,"REV_AT_EPOCH":4269,"BSTAR":0,"MEAN_MOTION_DOT":-6.0e-7,"MEAN_MOTION_DDOT":0},{"OBJECT_NAME":"BEIDOU-3 M21 (C43)","OBJECT_ID":"2019-078B","EPOCH":"2026-03-03T23:28:24.953376","MEAN_MOTION":1.86227541,"ECCENTRICITY":0.00059118,"INCLINATION":54.0042,"RA_OF_ASC_NODE":303.4937,"ARG_OF_PERICENTER":39.9322,"MEAN_ANOMALY":320.1697,"EPHEMERIS_TYPE":0,"CLASSIFICATION_TYPE":"U","NORAD_CAT_ID":44794,"ELEMENT_SET_NO":999,"REV_AT_EPOCH":4269,"BSTAR":0,"MEAN_MOTION_DOT":-5.8e-7,"MEAN_MOTION_DDOT":0},{"OBJECT_NAME":"BEIDOU-3 M19 (C41)","OBJECT_ID":"2019-090A","EPOCH":"2026-03-05T13:26:52.334016","MEAN_MOTION":1.86231373,"ECCENTRICITY":0.0020433,"INCLINATION":56.4687,"RA_OF_ASC_NODE":66.2141,"ARG_OF_PERICENTER":291.4658,"MEAN_ANOMALY":245.9437,"EPHEMERIS_TYPE":0,"CLASSIFICATION_TYPE":"U","NORAD_CAT_ID":44864,"ELEMENT_SET_NO":999,"REV_AT_EPOCH":4230,"BSTAR":0,"MEAN_MOTION_DOT":-3.3e-7,"MEAN_MOTION_DDOT":0},{"OBJECT_NAME":"BEIDOU-3 M20 (C42)","OBJECT_ID":"2019-090B","EPOCH":"2026-03-05T10:15:10.714176","MEAN_MOTION":1.86231388,"ECCENTRICITY":0.0017835,"INCLINATION":56.4702,"RA_OF_ASC_NODE":66.2529,"ARG_OF_PERICENTER":302.9017,"MEAN_ANOMALY":234.8674,"EPHEMERIS_TYPE":0,"CLASSIFICATION_TYPE":"U","NORAD_CAT_ID":44865,"ELEMENT_SET_NO":999,"REV_AT_EPOCH":4228,"BSTAR":0,"MEAN_MOTION_DOT":-3.2e-7,"MEAN_MOTION_DDOT":0},{"OBJECT_NAME":"BEIDOU-3 G2 (C60)","OBJECT_ID":"2020-017A","EPOCH":"2026-03-05T19:30:47.438784","MEAN_MOTION":1.00271514,"ECCENTRICITY":0.00027994,"INCLINATION":2.6571,"RA_OF_ASC_NODE":45.6818,"ARG_OF_PERICENTER":312.9867,"MEAN_ANOMALY":177.5975,"EPHEMERIS_TYPE":0,"CLASSIFICATION_TYPE":"U","NORAD_CAT_ID":45344,"ELEMENT_SET_NO":999,"REV_AT_EPOCH":2222,"BSTAR":0,"MEAN_MOTION_DOT":-1.45e-6,"MEAN_MOTION_DDOT":0},{"OBJECT_NAME":"BEIDOU-3 G3 (C61)","OBJECT_ID":"2020-040A","EPOCH":"2026-03-06T14:29:01.465152","MEAN_MOTION":1.00274548,"ECCENTRICITY":0.00045663,"INCLINATION":2.1953,"RA_OF_ASC_NODE":67.1371,"ARG_OF_PERICENTER":319.1272,"MEAN_ANOMALY":105.8159,"EPHEMERIS_TYPE":0,"CLASSIFICATION_TYPE":"U","NORAD_CAT_ID":45807,"ELEMENT_SET_NO":999,"REV_AT_EPOCH":2104,"BSTAR":0,"MEAN_MOTION_DOT":-3.57e-6,"MEAN_MOTION_DDOT":0},{"OBJECT_NAME":"BEIDOU-3 G4 (C62)","OBJECT_ID":"2023-066A","EPOCH":"2026-03-06T14:43:07.613184","MEAN_MOTION":1.00272435,"ECCENTRICITY":0.00022546,"INCLINATION":0.6446,"RA_OF_ASC_NODE":311.2318,"ARG_OF_PERICENTER":156.412,"MEAN_ANOMALY":77.5089,"EPHEMERIS_TYPE":0,"CLASSIFICATION_TYPE":"U","NORAD_CAT_ID":56564,"ELEMENT_SET_NO":999,"REV_AT_EPOCH":1036,"BSTAR":0,"MEAN_MOTION_DOT":-1.15e-6,"MEAN_MOTION_DDOT":0},{"OBJECT_NAME":"BEIDOU-3 M28 (C50)","OBJECT_ID":"2023-207A","EPOCH":"2026-03-05T03:06:23.426784","MEAN_MOTION":1.86229789,"ECCENTRICITY":0.00049202,"INCLINATION":55.6609,"RA_OF_ASC_NODE":65.812,"ARG_OF_PERICENTER":303.0244,"MEAN_ANOMALY":56.9487,"EPHEMERIS_TYPE":0,"CLASSIFICATION_TYPE":"U","NORAD_CAT_ID":58654,"ELEMENT_SET_NO":999,"REV_AT_EPOCH":1490,"BSTAR":0,"MEAN_MOTION_DOT":-3.3e-7,"MEAN_MOTION_DDOT":0},{"OBJECT_NAME":"BEIDOU-3 M26 (C48)","OBJECT_ID":"2023-207B","EPOCH":"2026-03-06T12:54:24.375168","MEAN_MOTION":1.86229716,"ECCENTRICITY":0.00057314,"INCLINATION":55.6644,"RA_OF_ASC_NODE":65.7507,"ARG_OF_PERICENTER":288.8087,"MEAN_ANOMALY":71.1446,"EPHEMERIS_TYPE":0,"CLASSIFICATION_TYPE":"U","NORAD_CAT_ID":58655,"ELEMENT_SET_NO":999,"REV_AT_EPOCH":1491,"BSTAR":0,"MEAN_MOTION_DOT":-3.9e-7,"MEAN_MOTION_DDOT":0}]
